QIANFAN-69              
1 62799U 25016Q   26062.42734905  .00000082  00000+0  10832-3 0  9993
2 62799  88.9668  94.6015 0017936 110.3541 249.9539 13.51004116 58170
QIANFAN-70              
1 62800U 25016R   26062.44375392  .00000055  00000+0  65812-4 0  9998
2 62800  88.9690  94.7557 0017557 101.7565 258.5557 13.50996908 58139
QIANFAN-71              
1 62801U 25016S   26062.43958176  .00000063  00000+0  78737-4 0  9994
2 62801  88.9684  94.7306 0017789 113.3882 246.9143 13.50996428 58132
QIANFAN-72              
1 62802U 25016T   26062.45604868  .00000060  00000+0  73788-4 0  9991
2 62802  88.9674  94.7345 0020964 120.1888 240.1343 13.50996123 58125
QIANFAN-73              
1 63159U 25046A   26062.48290785  .00000158  00000+0  22638-3 0  9997
2 63159  88.9763 311.6845 0013128 250.0619 109.9118 13.50997583 58319
QIANFAN-74              
1 63160U 25046B   26062.46650919  .00000201  00000+0  29307-3 0  9995
2 63160  88.9764 311.5751 0001889  78.0943 282.0419 13.50997426 58375
QIANFAN-75              
1 63161U 25046C   26062.45364897  .00000196  00000+0  28446-3 0  9998
2 63161  88.9766 311.8112 0014325 253.8322 106.1253 13.51001229 58241
QIANFAN-76              
1 63162U 25046D   26062.44999664  .00000212  00000+0  31046-3 0  9993
2 63162  88.9765 311.7915 0011873 254.5434 105.4406 13.51013656 58258
QIANFAN-77              
1 63163U 25046E   26062.45889361  .00000428  00000+0  30174-3 0  9997
2 63163  88.9761 309.1344 0014238 181.4015 178.7124 13.96172756 59711
QIANFAN-78              
1 63164U 25046F   26062.49114193  .00000202  00000+0  29425-3 0  9993
2 63164  88.9763 311.6506 0013203 257.1452 102.8224 13.50997673 58338
QIANFAN-79              
1 63165U 25046G   26062.44603719  .00000191  00000+0  27694-3 0  9999
2 63165  88.9768 311.7659 0013062 255.5389 104.4313 13.51007896 58278
QIANFAN-80              
1 63166U 25046H   26062.46231844  .00000186  00000+0  26972-3 0  9990
2 63166  88.9765 311.4689 0011894 260.2488  99.7320 13.50997466 58432
QIANFAN-81              
1 63167U 25046J   26062.44044830  .00000183  00000+0  26430-3 0  9992
2 63167  88.9764 311.5390 0012939 247.9470 112.0307 13.50983399 58384
QIANFAN-82              
1 63168U 25046K   26062.47470678  .00000176  00000+0  25360-3 0  9992
2 63168  88.9765 311.5795 0011013 255.8574 104.1354 13.50998808 58374
QIANFAN-83              
1 63169U 25046L   26062.43771389  .00000281  00000+0  34830-3 0  9991
2 63169  88.9765 311.2012 0012387 233.6975 126.3039 13.62019730 58588
QIANFAN-84              
1 63170U 25046M   26062.50247419 -.00000069  00000+0 -12575-3 0  9991
2 63170  88.9760 311.7088 0014025 251.8717 108.0907 13.50960716 58307
QIANFAN-85              
1 63171U 25046N   26062.49937905  .00000197  00000+0  28640-3 0  9996
2 63171  88.9764 311.5809 0011429 254.4876 105.5013 13.51001605 58372
