[{"OBJECT_NAME":"QIANFAN-69","OBJECT_ID":"2025-016Q","EPOCH":"2026-03-03T10:15:22.957920","MEAN_MOTION":13.51004116,"ECCENTRICITY":0.0017936,"INCLINATION":88.9668,"RA_OF_ASC_NODE":94.6015,"ARG_OF_PERICENTER":110.3541,"MEAN_ANOMALY":249.9539,"EPHEMERIS_TYPE":0,"CLASSIFICATION_TYPE":"U","NORAD_CAT_ID":62799,"ELEMENT_SET_NO":999,"REV_AT_EPOCH":5817,"BSTAR":0.00010832,"MEAN_MOTION_DOT":8.2e-7,"MEAN_MOTION_DDOT":0},{"OBJECT_NAME":"QIANFAN-70","OBJECT_ID":"2025-016R","EPOCH":"2026-03-03T10:39:00.338688","MEAN_MOTION":13.50996908,"ECCENTRICITY":0.0017557,"INCLINATION":88.969,"RA_OF_ASC_NODE":94.7557,"ARG_OF_PERICENTER":101.7565,"MEAN_ANOMALY":258.5557,"EPHEMERIS_TYPE":0,"CLASSIFICATION_TYPE":"U","NORAD_CAT_ID":62800,"ELEMENT_SET_NO":999,"REV_AT_EPOCH":5813,"BSTAR":6.5812e-5,"MEAN_MOTION_DOT":5.5e-7,"MEAN_MOTION_DDOT":0},{"OBJECT_NAME":"QIANFAN-71","OBJECT_ID":"2025-016S","EPOCH":"2026-03-03T10:32:59.864064","MEAN_MOTION":13.50996428,"ECCENTRICITY":0.0017789,"INCLINATION":88.9684,"RA_OF_ASC_NODE":94.7306,"ARG_OF_PERICENTER":113.3882,"MEAN_ANOMALY":246.9143,"EPHEMERIS_TYPE":0,"CLASSIFICATION_TYPE":"U","NORAD_CAT_ID":62801,"ELEMENT_SET_NO":999,"REV_AT_EPOCH":5813,"BSTAR":7.8737e-5,"MEAN_MOTION_DOT":6.3e-7,"MEAN_MOTION_DDOT":0},{"OBJECT_NAME":"QIANFAN-72","OBJECT_ID":"2025-016T","EPOCH":"2026-03-03T10:56:42.605952","MEAN_MOTION":13.50996123,"ECCENTRICITY":0.0020964,"INCLINATION":88.9674,"RA_OF_ASC_NODE":94.7345,"ARG_OF_PERICENTER":120.1888,"MEAN_ANOMALY":240.1343,"EPHEMERIS_TYPE":0,"CLASSIFICATION_TYPE":"U","NORAD_CAT_ID":62802,"ELEMENT_SET_NO":999,"REV_AT_EPOCH":5812,"BSTAR":7.3788e-5,"MEAN_MOTION_DOT":6.0e-7,"MEAN_MOTION_DDOT":0},{"OBJECT_NAME":"QIANFAN-73","OBJECT_ID":"2025-046A","EPOCH":"2026-03-03T11:35:23.238240","MEAN_MOTION":13.50997583,"ECCENTRICITY":0.0013128,"INCLINATION":88.9763,"RA_OF_ASC_NODE":311.6845,"ARG_OF_PERICENTER":250.0619,"MEAN_ANOMALY":109.9118,"EPHEMERIS_TYPE":0,"CLASSIFICATION_TYPE":"U","NORAD_CAT_ID":63159,"ELEMENT_SET_NO":999,"REV_AT_EPOCH":5831,"BSTAR":0.00022638,"MEAN_MOTION_DOT":1.58e-6,"MEAN_MOTION_DDOT":0},{"OBJECT_NAME":"QIANFAN-74","OBJECT_ID":"2025-046B","EPOCH":"2026-03-03T11:11:46.394016","MEAN_MOTION":13.50997426,"ECCENTRICITY":0.0001889,"INCLINATION":88.9764,"RA_OF_ASC_NODE":311.5751,"ARG_OF_PERICENTER":78.0943,"MEAN_ANOMALY":282.0419,"EPHEMERIS_TYPE":0,"CLASSIFICATION_TYPE":"U","NORAD_CAT_ID":63160,"ELEMENT_SET_NO":999,"REV_AT_EPOCH":5837,"BSTAR":0.00029307,"MEAN_MOTION_DOT":2.01e-6,"MEAN_MOTION_DDOT":0},{"OBJECT_NAME":"QIANFAN-75","OBJECT_ID":"2025-046C","EPOCH":"2026-03-03T10:53:15.271008","MEAN_MOTION":13.51001229,"ECCENTRICITY":0.0014325,"INCLINATION":88.9766,"RA_OF_ASC_NODE":311.8112,"ARG_OF_PERICENTER":253.8322,"MEAN_ANOMALY":106.1253,"EPHEMERIS_TYPE":0,"CLASSIFICATION_TYPE":"U","NORAD_CAT_ID":63161,"ELEMENT_SET_NO":999,"REV_AT_EPOCH":5824,"BSTAR":0.00028446,"MEAN_MOTION_DOT":1.96e-6,"MEAN_MOTION_DDOT":0},{"OBJECT_NAME":"QIANFAN-76","OBJECT_ID":"2025-046D","EPOCH":"2026-03-03T10:47:59.709696","MEAN_MOTION":13.51013656,"ECCENTRICITY":0.0011873,"INCLINATION":88.9765,"RA_OF_ASC_NODE":311.7915,"ARG_OF_PERICENTER":254.5434,"MEAN_ANOMALY":105.4406,"EPHEMERIS_TYPE":0,"CLASSIFICATION_TYPE":"U","NORAD_CAT_ID":63162,"ELEMENT_SET_NO":999,"REV_AT_EPOCH":5825,"BSTAR":0.00031046,"MEAN_MOTION_DOT":2.12e-6,"MEAN_MOTION_DDOT":0},{"OBJECT_NAME":"QIANFAN-77","OBJECT_ID":"2025-046E","EPOCH":"2026-03-03T11:00:48.407904","MEAN_MOTION":13.96172756,"ECCENTRICITY":0.0014238,"INCLINATION":88.9761,"RA_OF_ASC_NODE":309.1344,"ARG_OF_PERICENTER":181.4015,"MEAN_ANOMALY":178.7124,"EPHEMERIS_TYPE":0,"CLASSIFICATION_TYPE":"U","NORAD_CAT_ID":63163,"ELEMENT_SET_NO":999,"REV_AT_EPOCH":5971,"BSTAR":0.00030174,"MEAN_MOTION_DOT":4.28e-6,"MEAN_MOTION_DDOT":0},{"OBJECT_NAME":"QIANFAN-78","OBJECT_ID":"2025-046F","EPOCH":"2026-03-03T11:47:14.662752","MEAN_MOTION":13.50997673,"ECCENTRICITY":0.0013203,"INCLINATION":88.9763,"RA_OF_ASC_NODE":311.6506,"ARG_OF_PERICENTER":257.1452,"MEAN_ANOMALY":102.8224,"EPHEMERIS_TYPE":0,"CLASSIFICATION_TYPE":"U","NORAD_CAT_ID":63164,"ELEMENT_SET_NO":999,"REV_AT_EPOCH":5833,"BSTAR":0.00029425,"MEAN_MOTION_DOT":2.02e-6,"MEAN_MOTION_DDOT":0},{"OBJECT_NAME":"QIANFAN-79","OBJECT_ID":"2025-046G","EPOCH":"2026-03-03T10:42:17.613216","MEAN_MOTION":13.51007896,"ECCENTRICITY":0.0013062,"INCLINATION":88.9768,"RA_OF_ASC_NODE":311.7659,"ARG_OF_PERICENTER":255.5389,"MEAN_ANOMALY":104.4313,"EPHEMERIS_TYPE":0,"CLASSIFICATION_TYPE":"U","NORAD_CAT_ID":63165,"ELEMENT_SET_NO":999,"REV_AT_EPOCH":5827,"BSTAR":0.00027694,"MEAN_MOTION_DOT":1.91e-6,"MEAN_MOTION_DDOT":0},{"OBJECT_NAME":"QIANFAN-80","OBJECT_ID":"2025-046H","EPOCH":"2026-03-03T11:05:44.313216","MEAN_MOTION":13.50997466,"ECCENTRICITY":0.0011894,"INCLINATION":88.9765,"RA_OF_ASC_NODE":311.4689,"ARG_OF_PERICENTER":260.2488,"MEAN_ANOMALY":99.732,"EPHEMERIS_TYPE":0,"CLASSIFICATION_TYPE":"U","NORAD_CAT_ID":63166,"ELEMENT_SET_NO":999,"REV_AT_EPOCH":5843,"BSTAR":0.00026972,"MEAN_MOTION_DOT":1.86e-6,"MEAN_MOTION_DDOT":0},{"OBJECT_NAME":"QIANFAN-81","OBJECT_ID":"2025-046J","EPOCH":"2026-03-03T10:34:14.733120","MEAN_MOTION":13.50983399,"ECCENTRICITY":0.0012939,"INCLINATION":88.9764,"RA_OF_ASC_NODE":311.539,"ARG_OF_PERICENTER":247.947,"MEAN_ANOMALY":112.0307,"EPHEMERIS_TYPE":0,"CLASSIFICATION_TYPE":"U","NORAD_CAT_ID":63167,"ELEMENT_SET_NO":999,"REV_AT_EPOCH":5838,"BSTAR":0.0002643,"MEAN_MOTION_DOT":1.83e-6,"MEAN_MOTION_DDOT":0},{"OBJECT_NAME":"QIANFAN-82","OBJECT_ID":"2025-046K","EPOCH":"2026-03-03T11:23:34.665792","MEAN_MOTION":13.50998808,"ECCENTRICITY":0.0011013,"INCLINATION":88.9765,"RA_OF_ASC_NODE":311.5795,"ARG_OF_PERICENTER":255.8574,"MEAN_ANOMALY":104.1354,"EPHEMERIS_TYPE":0,"CLASSIFICATION_TYPE":"U","NORAD_CAT_ID":63168,"ELEMENT_SET_NO":999,"REV_AT_EPOCH":5837,"BSTAR":0.0002536,"MEAN_MOTION_DOT":1.76e-6,"MEAN_MOTION_DDOT":0},{"OBJECT_NAME":"QIANFAN-83","OBJECT_ID":"2025-046L","EPOCH":"2026-03-03T10:30:18.480096","MEAN_MOTION":13.6201973,"ECCENTRICITY":0.0012387,"INCLINATION":88.9765,"RA_OF_ASC_NODE":311.2012,"ARG_OF_PERICENTER":233.6975,"MEAN_ANOMALY":126.3039,"EPHEMERIS_TYPE":0,"CLASSIFICATION_TYPE":"U","NORAD_CAT_ID":63169,"ELEMENT_SET_NO":999,"REV_AT_EPOCH":5858,"BSTAR":0.0003483,"MEAN_MOTION_DOT":2.81e-6,"MEAN_MOTION_DDOT":0},{"OBJECT_NAME":"QIANFAN-84","OBJECT_ID":"2025-046M","EPOCH":"2026-03-03T12:03:33.770016","MEAN_MOTION":13.50960716,"ECCENTRICITY":0.0014025,"INCLINATION":88.976,"RA_OF_ASC_NODE":311.7088,"ARG_OF_PERICENTER":251.8717,"MEAN_ANOMALY":108.0907,"EPHEMERIS_TYPE":0,"CLASSIFICATION_TYPE":"U","NORAD_CAT_ID":63170,"ELEMENT_SET_NO":999,"REV_AT_EPOCH":5830,"BSTAR":-0.00012575,"MEAN_MOTION_DOT":-6.9e-7,"MEAN_MOTION_DDOT":0},{"OBJECT_NAME":"QIANFAN-85","OBJECT_ID":"2025-046N","EPOCH":"2026-03-03T11:59:06.349920","MEAN_MOTION":13.51001605,"ECCENTRICITY":0.0011429,"INCLINATION":88.9764,"RA_OF_ASC_NODE":311.5809,"ARG_OF_PERICENTER":254.4876,"MEAN_ANOMALY":105.5013,"EPHEMERIS_TYPE":0,"CLASSIFICATION_TYPE":"U","NORAD_CAT_ID":63171,"ELEMENT_SET_NO":999,"REV_AT_EPOCH":5837,"BSTAR":0.0002864,"MEAN_MOTION_DOT":1.97e-6,"MEAN_MOTION_DDOT":0}]
